{
  "type": "FeatureCollection",
  "features": [
    {
      "type": "Feature",
      "properties": {
        "norad_id": 43260,
        "name": "GAOFEN-1 03",
        "group": "resource",
        "lat": 42.03965434854804,
        "lon": 27.59355867009968,
        "alt_km": 635.9388281382362,
        "timestamp": "2025-12-03T06:58:42.898959+00:00",
        "meta_object_name": "GAOFEN-1 03",
        "meta_object_id": "2018-031B",
        "meta_epoch": "2025-12-02T21:01:38.007840",
        "meta_mean_motion": 14.76402551,
        "meta_eccentricity": 0.000267,
        "meta_inclination": 98.0813,
        "meta_ra_of_asc_node": 34.5392,
        "meta_arg_of_pericenter": 0.3515,
        "meta_mean_anomaly": 359.7696,
        "meta_ephemeris_type": 0,
        "meta_classification_type": "U",
        "meta_norad_cat_id": 43260,
        "meta_element_set_no": 999,
        "meta_rev_at_epoch": 41372,
        "meta_bstar": 0.00019534,
        "meta_mean_motion_dot": 1.306e-05,
        "meta_mean_motion_ddot": 0,
        "tle_line1": "1 43260U 18031B   25336.87613435  .00001306  00000+0  19534-3 0  9998",
        "tle_line2": "2 43260  98.0813  34.5392 0002670   0.3515 359.7696 14.76402551413728"
      },
      "geometry": {
        "type": "Point",
        "coordinates": [
          27.59355867009968,
          42.03965434854804
        ]
      }
    },
    {
      "type": "Feature",
      "properties": {
        "norad_id": 43262,
        "name": "GAOFEN-1 04",
        "group": "resource",
        "lat": 8.230499623640647,
        "lon": -143.7002407850759,
        "alt_km": 642.8652175493162,
        "timestamp": "2025-12-03T06:58:42.898970+00:00",
        "meta_object_name": "GAOFEN-1 04",
        "meta_object_id": "2018-031D",
        "meta_epoch": "2025-12-02T20:26:41.430624",
        "meta_mean_motion": 14.76415623,
        "meta_eccentricity": 0.0001368,
        "meta_inclination": 98.0822,
        "meta_ra_of_asc_node": 34.6829,
        "meta_arg_of_pericenter": 62.7477,
        "meta_mean_anomaly": 297.3872,
        "meta_ephemeris_type": 0,
        "meta_classification_type": "U",
        "meta_norad_cat_id": 43262,
        "meta_element_set_no": 999,
        "meta_rev_at_epoch": 41371,
        "meta_bstar": 0.00020101,
        "meta_mean_motion_dot": 1.345e-05,
        "meta_mean_motion_ddot": 0,
        "tle_line1": "1 43262U 18031D   25336.85186841  .00001345  00000+0  20101-3 0  9999",
        "tle_line2": "2 43262  98.0822  34.6829 0001368  62.7477 297.3872 14.76415623413714"
      },
      "geometry": {
        "type": "Point",
        "coordinates": [
          -143.7002407850759,
          8.230499623640647
        ]
      }
    },
    {
      "type": "Feature",
      "properties": {
        "norad_id": 43437,
        "name": "SENTINEL-3B",
        "group": "resource",
        "lat": -45.329114761879524,
        "lon": -146.2241422627577,
        "alt_km": 809.8070345562955,
        "timestamp": "2025-12-03T06:58:42.898981+00:00",
        "meta_object_name": "SENTINEL-3B",
        "meta_object_id": "2018-039A",
        "meta_epoch": "2025-12-02T18:08:28.531392",
        "meta_mean_motion": 14.26736446,
        "meta_eccentricity": 0.0001467,
        "meta_inclination": 98.6281,
        "meta_ra_of_asc_node": 42.0836,
        "meta_arg_of_pericenter": 112.3309,
        "meta_mean_anomaly": 247.8027,
        "meta_ephemeris_type": 0,
        "meta_classification_type": "U",
        "meta_norad_cat_id": 43437,
        "meta_element_set_no": 999,
        "meta_rev_at_epoch": 39611,
        "meta_bstar": 0.00010314,
        "meta_mean_motion_dot": 2.06e-06,
        "meta_mean_motion_ddot": 0,
        "tle_line1": "1 43437U 18039A   25336.75588578  .00000206  00000+0  10314-3 0  9993",
        "tle_line2": "2 43437  98.6281  42.0836 0001467 112.3309 247.8027 14.26736446396110"
      },
      "geometry": {
        "type": "Point",
        "coordinates": [
          -146.2241422627577,
          -45.329114761879524
        ]
      }
    },
    {
      "type": "Feature",
      "properties": {
        "norad_id": 43461,
        "name": "GAOFEN-5 01",
        "group": "resource",
        "lat": 27.94826800545276,
        "lon": 124.60712019429117,
        "alt_km": 691.5851078015039,
        "timestamp": "2025-12-03T06:58:42.898994+00:00",
        "meta_object_name": "GAOFEN-5 01",
        "meta_object_id": "2018-043A",
        "meta_epoch": "2025-12-02T20:25:13.689696",
        "meta_mean_motion": 14.60391187,
        "meta_eccentricity": 0.0001605,
        "meta_inclination": 98.4311,
        "meta_ra_of_asc_node": 299.6463,
        "meta_arg_of_pericenter": 11.609,
        "meta_mean_anomaly": 348.5146,
        "meta_ephemeris_type": 0,
        "meta_classification_type": "U",
        "meta_norad_cat_id": 43461,
        "meta_element_set_no": 999,
        "meta_rev_at_epoch": 40303,
        "meta_bstar": 0.00014932,
        "meta_mean_motion_dot": 6.74e-06,
        "meta_mean_motion_ddot": 0,
        "tle_line1": "1 43461U 18043A   25336.85085289  .00000674  00000+0  14932-3 0  9996",
        "tle_line2": "2 43461  98.4311 299.6463 0001605  11.6090 348.5146 14.60391187403035"
      },
      "geometry": {
        "type": "Point",
        "coordinates": [
          124.60712019429117,
          27.94826800545276
        ]
      }
    },
    {
      "type": "Feature",
      "properties": {
        "norad_id": 43484,
        "name": "GAOFEN-6",
        "group": "resource",
        "lat": -40.80643665058417,
        "lon": 48.675347995895656,
        "alt_km": 653.1721330006458,
        "timestamp": "2025-12-03T06:58:42.899005+00:00",
        "meta_object_name": "GAOFEN-6",
        "meta_object_id": "2018-048A",
        "meta_epoch": "2025-12-02T21:24:24.588000",
        "meta_mean_motion": 14.76535446,
        "meta_eccentricity": 0.0013323,
        "meta_inclination": 97.8045,
        "meta_ra_of_asc_node": 41.4892,
        "meta_arg_of_pericenter": 92.6791,
        "meta_mean_anomaly": 267.5944,
        "meta_ephemeris_type": 0,
        "meta_classification_type": "U",
        "meta_norad_cat_id": 43484,
        "meta_element_set_no": 999,
        "meta_rev_at_epoch": 40442,
        "meta_bstar": 7.7292e-05,
        "meta_mean_motion_dot": 4.9e-06,
        "meta_mean_motion_ddot": 0,
        "tle_line1": "1 43484U 18048A   25336.89195125  .00000490  00000+0  77292-4 0  9996",
        "tle_line2": "2 43484  97.8045  41.4892 0013323  92.6791 267.5944 14.76535446404428"
      },
      "geometry": {
        "type": "Point",
        "coordinates": [
          48.675347995895656,
          -40.80643665058417
        ]
      }
    },
    {
      "type": "Feature",
      "properties": {
        "norad_id": 43585,
        "name": "GAOFEN-11 01",
        "group": "resource",
        "lat": -4.707548269907794,
        "lon": -140.28594589904014,
        "alt_km": 427.29848608147313,
        "timestamp": "2025-12-03T06:58:42.899021+00:00",
        "meta_object_name": "GAOFEN-11 01",
        "meta_object_id": "2018-063A",
        "meta_epoch": "2025-12-02T20:52:48.793152",
        "meta_mean_motion": 15.48794024,
        "meta_eccentricity": 0.0005021,
        "meta_inclination": 97.1583,
        "meta_ra_of_asc_node": 39.8899,
        "meta_arg_of_pericenter": 355.967,
        "meta_mean_anomaly": 4.154,
        "meta_ephemeris_type": 0,
        "meta_classification_type": "U",
        "meta_norad_cat_id": 43585,
        "meta_element_set_no": 999,
        "meta_rev_at_epoch": 40989,
        "meta_bstar": 0.00033655,
        "meta_mean_motion_dot": 0.00018014,
        "meta_mean_motion_ddot": 0,
        "tle_line1": "1 43585U 18063A   25336.87000918  .00018014  00000+0  33655-3 0  9993",
        "tle_line2": "2 43585  97.1583  39.8899 0005021 355.9670   4.1540 15.48794024409897"
      },
      "geometry": {
        "type": "Point",
        "coordinates": [
          -140.28594589904014,
          -4.707548269907794
        ]
      }
    },
    {
      "type": "Feature",
      "properties": {
        "norad_id": 43613,
        "name": "ICESAT-2",
        "group": "resource",
        "lat": -87.90364315782058,
        "lon": -15.008795030417557,
        "alt_km": 488.49834118747003,
        "timestamp": "2025-12-03T06:58:42.899032+00:00",
        "meta_object_name": "ICESAT-2",
        "meta_object_id": "2018-070A",
        "meta_epoch": "2025-12-02T17:13:54.170112",
        "meta_mean_motion": 15.28316823,
        "meta_eccentricity": 6.66e-05,
        "meta_inclination": 92.0055,
        "meta_ra_of_asc_node": 238.0319,
        "meta_arg_of_pericenter": 151.2902,
        "meta_mean_anomaly": 208.8384,
        "meta_ephemeris_type": 0,
        "meta_classification_type": "U",
        "meta_norad_cat_id": 43613,
        "meta_element_set_no": 999,
        "meta_rev_at_epoch": 40245,
        "meta_bstar": 0.00059854,
        "meta_mean_motion_dot": 0.00016514,
        "meta_mean_motion_ddot": 0,
        "tle_line1": "1 43613U 18070A   25336.71798808  .00016514  00000+0  59854-3 0  9990",
        "tle_line2": "2 43613  92.0055 238.0319 0000666 151.2902 208.8384 15.28316823402451"
      },
      "geometry": {
        "type": "Point",
        "coordinates": [
          -15.008795030417557,
          -87.90364315782058
        ]
      }
    }
  ]
}